[{"OBJECT_NAME":"ICESAT-2","OBJECT_ID":"2018-070A","EPOCH":"2026-03-09T22:54:12.225888","MEAN_MOTION":15.28328617,"ECCENTRICITY":0.00038245,"INCLINATION":91.9993,"RA_OF_ASC_NODE":264.2397,"ARG_OF_PERICENTER":123.8941,"MEAN_ANOMALY":236.2673,"EPHEMERIS_TYPE":0,"CLASSIFICATION_TYPE":"U","NORAD_CAT_ID":43613,"ELEMENT_SET_NO":999,"REV_AT_EPOCH":41730,"BSTAR":0.00014022643,"MEAN_MOTION_DOT":3.87e-5,"MEAN_MOTION_DDOT":0},{"OBJECT_NAME":"STARLINK-32601","OBJECT_ID":"2024-210Q","EPOCH":"2026-03-09T14:55:18.373152","MEAN_MOTION":15.2759574,"ECCENTRICITY":0.0001921,"INCLINATION":43.0004,"RA_OF_ASC_NODE":179.8611,"ARG_OF_PERICENTER":246.0648,"MEAN_ANOMALY":114.0002,"EPHEMERIS_TYPE":0,"CLASSIFICATION_TYPE":"U","NORAD_CAT_ID":61973,"ELEMENT_SET_NO":999,"REV_AT_EPOCH":7487,"BSTAR":0.0013424,"MEAN_MOTION_DOT":0.0003688,"MEAN_MOTION_DDOT":0}]
